[{"OBJECT_NAME":"STARLINK-31623","OBJECT_ID":"2024-050U","EPOCH":"2026-03-09T15:01:47.098848","MEAN_MOTION":15.30189981,"ECCENTRICITY":4.77e-5,"INCLINATION":53.1617,"RA_OF_ASC_NODE":180.9527,"ARG_OF_PERICENTER":74.784,"MEAN_ANOMALY":285.3213,"EPHEMERIS_TYPE":0,"CLASSIFICATION_TYPE":"U","NORAD_CAT_ID":59272,"ELEMENT_SET_NO":999,"REV_AT_EPOCH":11054,"BSTAR":-3.3687e-5,"MEAN_MOTION_DOT":-1.356e-5,"MEAN_MOTION_DDOT":0},{"OBJECT_NAME":"OBJECT D","OBJECT_ID":"2024-085D","EPOCH":"2026-03-09T22:53:13.410816","MEAN_MOTION":15.33413141,"ECCENTRICITY":0.00152451,"INCLINATION":97.3312,"RA_OF_ASC_NODE":145.3953,"ARG_OF_PERICENTER":54.9672,"MEAN_ANOMALY":305.2998,"EPHEMERIS_TYPE":0,"CLASSIFICATION_TYPE":"U","NORAD_CAT_ID":59680,"ELEMENT_SET_NO":999,"REV_AT_EPOCH":10244,"BSTAR":0.00049264705,"MEAN_MOTION_DOT":0.00015903,"MEAN_MOTION_DDOT":0}]
